NORAD_CAT_ID,OBJECT_NAME,OBJECT_TYPE,EPOCH,MEAN_MOTION,ECCENTRICITY,INCLINATION,RA_OF_ASC_NODE,ARG_OF_PERICENTER,MEAN_ANOMALY,BSTAR,MEAN_MOTION_DOT,MEAN_MOTION_DDOT,TLE_LINE0,TLE_LINE1,TLE_LINE2,SEMIMAJOR_AXIS,PERIOD,APOGEE,PERIGEE,DECAYED
54003.0,STARLINK-5114,PAYLOAD,2024-07-09 22:12:57,15.08846513,0.000141,53.2186,62.2785,91.2261,268.8892,-8.9729e-05,-1.716e-05,0.0,0 STARLINK-5114,1 54003U 22125AR  24191.92566581 -.00001716  00000-0 -89729-4 0  9999,2 54003  53.2186  62.2785 0001410  91.2261 268.8892 15.08846513 97714,6917.86,95.437,540.701,538.75,0.0
54003.0,STARLINK-5114,PAYLOAD,2024-07-10 20:28:21,15.08835362,0.0001437,53.2181,58.1171,90.1221,269.9935,4.5919e-05,4.43e-06,0.0,0 STARLINK-5114,1 54003U 22125AR  24192.85302978  .00000443  00000-0  45919-4 0  9997,2 54003  53.2181  58.1171 0001437  90.1221 269.9935 15.08835362 97906,6917.895,95.438,540.754,538.765,0.0
54003.0,STARLINK-5114,PAYLOAD,2024-07-10 22:03:44,15.08837662,0.0001435,53.2183,57.8205,88.7257,271.39,4.6106e-05,4.46e-06,0.0,0 STARLINK-5114,1 54003U 22125AR  24192.91926860  .00000446  00000-0  46106-4 0  9998,2 54003  53.2183  57.8205 0001435  88.7257 271.3900 15.08837662 97861,6917.888,95.438,540.745,538.76,0.0
54003.0,STARLINK-5114,PAYLOAD,2024-07-12 01:05:17,15.08843427,0.0001347,53.2181,52.7612,103.7072,256.407,6.0279e-05,6.72e-06,0.0,0 STARLINK-5114,1 54003U 22125AR  24194.04534468  .00000672  00000-0  60279-4 0  9991,2 54003  53.2181  52.7612 0001347 103.7072 256.4070 15.08843427 98083,6917.87,95.437,540.667,538.803,0.0
54003.0,STARLINK-5114,PAYLOAD,2024-07-12 07:26:50,15.08845541,0.0001237,53.2175,51.5727,75.0547,285.0582,5.3406e-05,5.62e-06,0.0,0 STARLINK-5114,1 54003U 22125AR  24194.31030398  .00000562  00000-0  53406-4 0  9996,2 54003  53.2175  51.5727 0001237  75.0547 285.0582 15.08845541 98070,6917.863,95.437,540.584,538.873,0.0
54003.0,STARLINK-5114,PAYLOAD,2024-07-12 20:09:56,15.08835351,0.0001561,53.2188,49.1965,87.4771,272.64,-3.9297e-05,-9.13e-06,0.0,0 STARLINK-5114,1 54003U 22125AR  24194.84023547 -.00000913  00000-0 -39297-4 0  9996,2 54003  53.2188  49.1965 0001561  87.4771 272.6400 15.08835351 98201,6917.895,95.438,540.839,538.68,0.0
54003.0,STARLINK-5114,PAYLOAD,2024-07-12 21:45:19,15.08838654,0.0001454,53.2187,48.8995,85.6897,274.4262,1.1758e-05,-1.01e-06,0.0,0 STARLINK-5114,1 54003U 22125AR  24194.90647200 -.00000101  00000-0  11758-4 0  9991,2 54003  53.2187  48.8995 0001454  85.6897 274.4262 15.08838654 98169,6917.885,95.438,540.755,538.744,0.0
54003.0,STARLINK-5114,PAYLOAD,2024-07-12 23:20:42,15.0884134,0.0001495,53.2191,48.604,89.5558,270.5605,2.0078e-05,3.2e-07,0.0,0 STARLINK-5114,1 54003U 22125AR  24194.97271004  .00000032  00000-0  20078-4 0  9990,2 54003  53.2191  48.6040 0001495  89.5558 270.5605 15.08841340 98226,6917.876,95.437,540.776,538.707,0.0
54003.0,STARLINK-5114,PAYLOAD,2024-07-13 07:17:38,15.08835404,0.000138,53.2186,47.1111,99.744,260.3708,1.2663e-05,-8.6e-07,0.0,0 STARLINK-5114,1 54003U 22125AR  24195.30391333 -.00000086  00000-0  12663-4 0  9997,2 54003  53.2186  47.1111 0001380  99.7440 260.3708 15.08835404 98279,6917.894,95.438,540.714,538.805,0.0
54003.0,STARLINK-5114,PAYLOAD,2024-07-13 20:00:42,15.08844836,0.000131,53.2184,44.7341,97.9742,262.1399,-4.208e-06,-3.55e-06,0.0,0 STARLINK-5114,1 54003U 22125AR  24195.83382938 -.00000355  00000-0 -42080-5 0  9993,2 54003  53.2184  44.7341 0001310  97.9742 262.1399 15.08844836 98357,6917.866,95.437,540.637,538.824,0.0
54003.0,STARLINK-5114,PAYLOAD,2024-07-13 21:36:05,15.08847386,0.0001285,53.2183,44.4357,94.7527,265.3612,7.1663e-06,-1.74e-06,0.0,0 STARLINK-5114,1 54003U 22125AR  24195.90006725 -.00000174  00000-0  71663-5 0  9995,2 54003  53.2183  44.4357 0001285  94.7527 265.3612 15.08847386 98319,6917.858,95.437,540.612,538.834,0.0
54003.0,STARLINK-5114,PAYLOAD,2024-07-14 13:29:57,15.08837388,0.00016,53.2186,41.4662,80.8314,279.2859,4.3191e-05,3.99e-06,0.0,0 STARLINK-5114,1 54003U 22125AR  24196.56247334  .00000399  00000-0  43191-4 0  9993,2 54003  53.2186  41.4662 0001600  80.8314 279.2859 15.08837388 98418,6917.888,95.438,540.86,538.647,0.0
54003.0,STARLINK-5114,PAYLOAD,2024-07-14 19:51:30,15.08837085,0.0001207,53.2172,40.2762,82.7693,277.3436,8.1504e-05,1.009e-05,0.0,0 STARLINK-5114,1 54003U 22125AR  24196.82743172  .00001009  00000-0  81504-4 0  9992,2 54003  53.2172  40.2762 0001207  82.7693 277.3436 15.08837085 98509,6917.889,95.438,540.589,538.919,0.0
54003.0,STARLINK-5114,PAYLOAD,2024-07-15 19:42:17,15.08836204,0.0001087,53.2155,35.8148,86.8864,273.2253,3.0734e-05,2.01e-06,0.0,0 STARLINK-5114,1 54003U 22125AR  24197.82103490  .00000201  00000-0  30734-4 0  9998,2 54003  53.2155  35.8148 0001087  86.8864 273.2253 15.08836204 98604,6917.892,95.438,540.509,539.005,0.0
54003.0,STARLINK-5114,PAYLOAD,2024-07-16 06:49:58,15.08848645,0.0001063,53.216,33.7341,90.7463,269.3651,7.8973e-06,-1.62e-06,0.0,0 STARLINK-5114,1 54003U 22125AR  24198.28470642 -.00000162  00000-0  78973-5 0  9990,2 54003  53.2160  33.7341 0001063  90.7463 269.3651 15.08848645 98728,6917.854,95.437,540.454,538.984,0.0
54003.0,STARLINK-5114,PAYLOAD,2024-07-16 19:33:04,15.08795316,0.0001715,53.2184,31.354,95.6143,264.5045,0.00082111,0.00012788,0.0,0 STARLINK-5114,1 54003U 22125AR  24198.81463650  .00012788  00000-0  82111-3 0  9993,2 54003  53.2184  31.3540 0001715  95.6143 264.5045 15.08795316 98755,6918.017,95.44,541.068,538.696,0.0
54003.0,STARLINK-5114,PAYLOAD,2024-07-16 22:43:49,15.08857238,0.0001583,53.2192,30.7562,103.3937,256.7232,5.8434e-05,6.42e-06,0.0,0 STARLINK-5114,1 54003U 22125AR  24198.94709890  .00000642  00000-0  58434-4 0  9994,2 54003  53.2192  30.7562 0001583 103.3937 256.7232 15.08857238 98823,6917.828,95.436,540.788,538.598,0.0
54003.0,STARLINK-5114,PAYLOAD,2024-07-17 17:48:29,15.08788129,0.0002,53.2181,27.1816,122.9755,237.1429,0.00065329,0.0001011,0.0,0 STARLINK-5114,1 54003U 22125AR  24199.74200342  .00010110  00000-0  65329-3 0  9992,2 54003  53.2181  27.1816 0002000 122.9755 237.1429 15.08788129 98949,6918.039,95.441,541.288,538.52,0.0
54003.0,STARLINK-5114,PAYLOAD,2024-07-18 04:56:10,15.08835254,0.0001351,53.2189,25.1088,88.7019,271.4128,2.1058e-05,4.7e-07,0.0,0 STARLINK-5114,1 54003U 22125AR  24200.20567991  .00000047  00000-0  21058-4 0  9992,2 54003  53.2189  25.1088 0001351  88.7019 271.4128 15.08835254 99014,6917.895,95.438,540.695,538.825,0.0
54003.0,STARLINK-5114,PAYLOAD,2024-07-18 19:14:38,15.08843844,0.0001308,53.2188,22.4364,86.7829,273.3313,6.1447e-05,6.9e-06,0.0,0 STARLINK-5114,1 54003U 22125AR  24200.80183531  .00000690  00000-0  61447-4 0  9992,2 54003  53.2188  22.4364 0001308  86.7829 273.3313 15.08843844 99100,6917.869,95.437,540.638,538.829,0.0
54003.0,STARLINK-5114,PAYLOAD,2024-07-19 19:05:25,15.08840745,0.0001163,53.2191,17.9786,90.7759,269.3367,0.0001041,1.369e-05,0.0,0 STARLINK-5114,1 54003U 22125AR  24201.79543772  .00001369  00000-0  10410-3 0  9995,2 54003  53.2191  17.9786 0001163  90.7759 269.3367 15.08840745 99254,6917.878,95.438,540.548,538.939,0.0
54003.0,STARLINK-5114,PAYLOAD,2024-07-20 04:37:44,15.08846133,9.67e-05,53.2172,16.1896,70.5377,289.572,0.00017156,2.444e-05,0.0,0 STARLINK-5114,1 54003U 22125AR  24202.19287182  .00002444  00000-0  17156-3 0  9999,2 54003  53.2172  16.1896 0000967  70.5377 289.5720 15.08846133 99264,6917.862,95.437,540.396,539.058,0.0
54003.0,STARLINK-5114,PAYLOAD,2024-07-20 18:56:12,15.08845971,0.0001002,53.2179,13.5162,92.7611,267.3495,8.7048e-05,1.098e-05,0.0,0 STARLINK-5114,1 54003U 22125AR  24202.78903674  .00001098  00000-0  87048-4 0  9997,2 54003  53.2179  13.5162 0001002  92.7611 267.3495 15.08845971 99358,6917.862,95.437,540.42,539.034,0.0
54003.0,STARLINK-5114,PAYLOAD,2024-07-21 04:28:34,15.08811183,0.0001058,53.2171,11.7294,77.9999,282.1111,-0.00015775,-2.795e-05,0.0,0 STARLINK-5114,1 54003U 22125AR  24203.18650911 -.00002795  00000-0 -15775-3 0  9999,2 54003  53.2171  11.7294 0001058  77.9999 282.1111 15.08811183 99461,6917.968,95.439,540.565,539.102,0.0
54003.0,STARLINK-5114,PAYLOAD,2024-07-21 10:50:07,15.088088,0.0001253,53.2183,10.5409,77.319,282.7942,-0.0002443,-4.17e-05,0.0,0 STARLINK-5114,1 54003U 22125AR  24203.45147874 -.00004170  00000-0 -24430-3 0  9995,2 54003  53.2183  10.5409 0001253  77.3190 282.7942 15.08808800 99452,6917.976,95.44,540.708,538.974,0.0
54003.0,STARLINK-5114,PAYLOAD,2024-07-21 17:11:38,15.0883859,0.0001121,53.217,9.3487,79.9216,280.1902,-2.3728e-06,-3.26e-06,0.0,0 STARLINK-5114,1 54003U 22125AR  24203.71641587 -.00000326  00000-0 -23728-5 0  9994,2 54003  53.2170   9.3487 0001121  79.9216 280.1902 15.08838590 99548,6917.885,95.438,540.525,538.974,0.0
54003.0,STARLINK-5114,PAYLOAD,2024-07-23 16:53:14,15.08776493,0.0001604,53.2173,0.4234,129.9819,230.1314,0.0015316,0.00024129,0.0,0 STARLINK-5114,1 54003U 22125AR  24205.70363922  .00024129  00000-0  15316-2 0  9995,2 54003  53.2173   0.4234 0001604 129.9819 230.1314 15.08776493 99842,6918.075,95.442,541.049,538.83,0.0
54003.0,STARLINK-5114,PAYLOAD,2024-07-24 10:22:26,15.08840298,0.0001039,53.2174,357.1514,112.0916,248.0186,2.8857e-05,1.72e-06,0.0,0 STARLINK-5114,1 54003U 22125AR  24206.43224617  .00000172  00000-0  28857-4 0  9991,2 54003  53.2174 357.1514 0001039 112.0916 248.0186 15.08840298 99951,6917.879,95.438,540.463,539.026,0.0
54003.0,STARLINK-5114,PAYLOAD,2024-07-26 10:04:00,15.08838958,0.0001469,53.2215,348.2391,100.2021,259.9137,7.7509e-05,9.46e-06,0.0,0 STARLINK-5114,1 54003U 22125AR  24208.41944634  .00000946  00000-0  77509-4 0  9996,2 54003  53.2215 348.2391 0001469 100.2021 259.9137 15.08838958100257,6917.884,95.438,540.765,538.732,0.0
54003.0,STARLINK-5114,PAYLOAD,2024-07-26 18:00:54,15.08849277,0.0001444,53.2161,346.7507,95.5268,264.5889,0.00016376,2.32e-05,0.0,0 STARLINK-5114,1 54003U 22125AR  24208.75063619  .00002320  00000-0  16376-3 0  9990,2 54003  53.2161 346.7507 0001444  95.5268 264.5889 15.08849277100309,6917.852,95.437,540.716,538.718,0.0
